[{"OBJECT_NAME":"IRIDIUM 151","OBJECT_ID":"2017-083E","EPOCH":"2026-03-05T21:36:43.146432","MEAN_MOTION":14.34217721,"ECCENTRICITY":0.00021821,"INCLINATION":86.402,"RA_OF_ASC_NODE":5.218,"ARG_OF_PERICENTER":87.7046,"MEAN_ANOMALY":272.44,"EPHEMERIS_TYPE":0,"CLASSIFICATION_TYPE":"U","NORAD_CAT_ID":43074,"ELEMENT_SET_NO":999,"REV_AT_EPOCH":42933,"BSTAR":-5.177342e-6,"MEAN_MOTION_DOT":5.0e-8,"MEAN_MOTION_DDOT":0},{"OBJECT_NAME":"IRIDIUM 134","OBJECT_ID":"2017-083F","EPOCH":"2026-03-05T20:51:03.081024","MEAN_MOTION":14.34218043,"ECCENTRICITY":0.00020379,"INCLINATION":86.4021,"RA_OF_ASC_NODE":5.2379,"ARG_OF_PERICENTER":85.3118,"MEAN_ANOMALY":274.8311,"EPHEMERIS_TYPE":0,"CLASSIFICATION_TYPE":"U","NORAD_CAT_ID":43075,"ELEMENT_SET_NO":999,"REV_AT_EPOCH":42929,"BSTAR":0.00013199964,"MEAN_MOTION_DOT":3.89e-6,"MEAN_MOTION_DDOT":0},{"OBJECT_NAME":"IRIDIUM 137","OBJECT_ID":"2017-083G","EPOCH":"2026-03-05T21:09:19.203264","MEAN_MOTION":14.34217527,"ECCENTRICITY":0.00022759,"INCLINATION":86.4017,"RA_OF_ASC_NODE":5.3233,"ARG_OF_PERICENTER":97.0061,"MEAN_ANOMALY":263.1394,"EPHEMERIS_TYPE":0,"CLASSIFICATION_TYPE":"U","NORAD_CAT_ID":43076,"ELEMENT_SET_NO":999,"REV_AT_EPOCH":42936,"BSTAR":-8.907288e-6,"MEAN_MOTION_DOT":-5.0e-8,"MEAN_MOTION_DDOT":0},{"OBJECT_NAME":"IRIDIUM 141","OBJECT_ID":"2017-083H","EPOCH":"2026-03-05T21:00:11.717568","MEAN_MOTION":14.34221754,"ECCENTRICITY":0.00022111,"INCLINATION":86.4018,"RA_OF_ASC_NODE":5.1625,"ARG_OF_PERICENTER":82.5987,"MEAN_ANOMALY":277.546,"EPHEMERIS_TYPE":0,"CLASSIFICATION_TYPE":"U","NORAD_CAT_ID":43077,"ELEMENT_SET_NO":999,"REV_AT_EPOCH":42936,"BSTAR":0.00011463315,"MEAN_MOTION_DOT":3.41e-6,"MEAN_MOTION_DDOT":0},{"OBJECT_NAME":"IRIDIUM 153","OBJECT_ID":"2017-083J","EPOCH":"2026-03-05T18:10:51.356640","MEAN_MOTION":14.34218079,"ECCENTRICITY":0.00021282,"INCLINATION":86.4017,"RA_OF_ASC_NODE":333.7261,"ARG_OF_PERICENTER":79.9007,"MEAN_ANOMALY":280.2429,"EPHEMERIS_TYPE":0,"CLASSIFICATION_TYPE":"U","NORAD_CAT_ID":43078,"ELEMENT_SET_NO":999,"REV_AT_EPOCH":43045,"BSTAR":1.4106711e-5,"MEAN_MOTION_DOT":5.9e-7,"MEAN_MOTION_DDOT":0},{"OBJECT_NAME":"IRIDIUM 131","OBJECT_ID":"2017-083K","EPOCH":"2026-03-05T22:22:23.153088","MEAN_MOTION":14.34218579,"ECCENTRICITY":0.00023038,"INCLINATION":86.4025,"RA_OF_ASC_NODE":5.3177,"ARG_OF_PERICENTER":84.8701,"MEAN_ANOMALY":275.2757,"EPHEMERIS_TYPE":0,"CLASSIFICATION_TYPE":"U","NORAD_CAT_ID":43079,"ELEMENT_SET_NO":999,"REV_AT_EPOCH":42930,"BSTAR":0.00012138842,"MEAN_MOTION_DOT":3.6e-6,"MEAN_MOTION_DDOT":0},{"OBJECT_NAME":"IRIDIUM 144","OBJECT_ID":"2018-030A","EPOCH":"2026-03-05T16:39:31.413312","MEAN_MOTION":14.34218004,"ECCENTRICITY":0.00020603,"INCLINATION":86.4015,"RA_OF_ASC_NODE":333.6837,"ARG_OF_PERICENTER":88.5496,"MEAN_ANOMALY":271.5936,"EPHEMERIS_TYPE":0,"CLASSIFICATION_TYPE":"U","NORAD_CAT_ID":43249,"ELEMENT_SET_NO":999,"REV_AT_EPOCH":41530,"BSTAR":2.5557813e-5,"MEAN_MOTION_DOT":9.1e-7,"MEAN_MOTION_DDOT":0},{"OBJECT_NAME":"IRIDIUM 149","OBJECT_ID":"2018-030B","EPOCH":"2026-03-05T05:05:23.402688","MEAN_MOTION":14.34217672,"ECCENTRICITY":0.0002067,"INCLINATION":86.4008,"RA_OF_ASC_NODE":333.8529,"ARG_OF_PERICENTER":82.7041,"MEAN_ANOMALY":277.439,"EPHEMERIS_TYPE":0,"CLASSIFICATION_TYPE":"U","NORAD_CAT_ID":43250,"ELEMENT_SET_NO":999,"REV_AT_EPOCH":41525,"BSTAR":-4.155e-7,"MEAN_MOTION_DOT":1.9e-7,"MEAN_MOTION_DDOT":0},{"OBJECT_NAME":"IRIDIUM 157","OBJECT_ID":"2018-030C","EPOCH":"2026-03-05T17:16:03.363168","MEAN_MOTION":14.34217795,"ECCENTRICITY":0.0002088,"INCLINATION":86.4001,"RA_OF_ASC_NODE":333.6912,"ARG_OF_PERICENTER":85.1241,"MEAN_ANOMALY":275.0194,"EPHEMERIS_TYPE":0,"CLASSIFICATION_TYPE":"U","NORAD_CAT_ID":43251,"ELEMENT_SET_NO":999,"REV_AT_EPOCH":41530,"BSTAR":-1.650672e-6,"MEAN_MOTION_DOT":1.5e-7,"MEAN_MOTION_DDOT":0},{"OBJECT_NAME":"IRIDIUM 140","OBJECT_ID":"2018-030D","EPOCH":"2026-03-05T17:43:27.401376","MEAN_MOTION":14.34217852,"ECCENTRICITY":0.00020187,"INCLINATION":86.4015,"RA_OF_ASC_NODE":333.6969,"ARG_OF_PERICENTER":84.3357,"MEAN_ANOMALY":275.8068,"EPHEMERIS_TYPE":0,"CLASSIFICATION_TYPE":"U","NORAD_CAT_ID":43252,"ELEMENT_SET_NO":999,"REV_AT_EPOCH":41536,"BSTAR":1.0850154e-5,"MEAN_MOTION_DOT":5.0e-7,"MEAN_MOTION_DDOT":0},{"OBJECT_NAME":"IRIDIUM 145","OBJECT_ID":"2018-030E","EPOCH":"2026-03-05T17:25:10.994016","MEAN_MOTION":14.34220559,"ECCENTRICITY":0.0001899,"INCLINATION":86.4013,"RA_OF_ASC_NODE":333.6748,"ARG_OF_PERICENTER":93.6656,"MEAN_ANOMALY":266.4757,"EPHEMERIS_TYPE":0,"CLASSIFICATION_TYPE":"U","NORAD_CAT_ID":43253,"ELEMENT_SET_NO":999,"REV_AT_EPOCH":41529,"BSTAR":0.00012071283,"MEAN_MOTION_DOT":3.58e-6,"MEAN_MOTION_DDOT":0},{"OBJECT_NAME":"IRIDIUM 146","OBJECT_ID":"2018-030F","EPOCH":"2026-03-05T16:57:47.238336","MEAN_MOTION":14.34218951,"ECCENTRICITY":0.00020735,"INCLINATION":86.4014,"RA_OF_ASC_NODE":333.6953,"ARG_OF_PERICENTER":89.6686,"MEAN_ANOMALY":270.4747,"EPHEMERIS_TYPE":0,"CLASSIFICATION_TYPE":"U","NORAD_CAT_ID":43254,"ELEMENT_SET_NO":999,"REV_AT_EPOCH":41530,"BSTAR":4.868798e-5,"MEAN_MOTION_DOT":1.56e-6,"MEAN_MOTION_DDOT":0},{"OBJECT_NAME":"IRIDIUM 148","OBJECT_ID":"2018-030G","EPOCH":"2026-03-05T17:52:35.399424","MEAN_MOTION":14.34218449,"ECCENTRICITY":0.00021797,"INCLINATION":86.4015,"RA_OF_ASC_NODE":333.7208,"ARG_OF_PERICENTER":86.599,"MEAN_ANOMALY":273.5455,"EPHEMERIS_TYPE":0,"CLASSIFICATION_TYPE":"U","NORAD_CAT_ID":43255,"ELEMENT_SET_NO":999,"REV_AT_EPOCH":41534,"BSTAR":0.00010141992,"MEAN_MOTION_DOT":3.04e-6,"MEAN_MOTION_DDOT":0},{"OBJECT_NAME":"IRIDIUM 142","OBJECT_ID":"2018-030H","EPOCH":"2026-03-05T17:06:55.346976","MEAN_MOTION":14.34217707,"ECCENTRICITY":0.00018331,"INCLINATION":86.4006,"RA_OF_ASC_NODE":333.6267,"ARG_OF_PERICENTER":92.9457,"MEAN_ANOMALY":267.1949,"EPHEMERIS_TYPE":0,"CLASSIFICATION_TYPE":"U","NORAD_CAT_ID":43256,"ELEMENT_SET_NO":999,"REV_AT_EPOCH":41530,"BSTAR":-2.71395e-6,"MEAN_MOTION_DOT":1.2e-7,"MEAN_MOTION_DDOT":0},{"OBJECT_NAME":"IRIDIUM 150","OBJECT_ID":"2018-030J","EPOCH":"2026-03-05T18:01:43.375008","MEAN_MOTION":14.34217445,"ECCENTRICITY":0.00020734,"INCLINATION":86.4015,"RA_OF_ASC_NODE":333.7239,"ARG_OF_PERICENTER":85.8933,"MEAN_ANOMALY":274.2499,"EPHEMERIS_TYPE":0,"CLASSIFICATION_TYPE":"U","NORAD_CAT_ID":43257,"ELEMENT_SET_NO":999,"REV_AT_EPOCH":41533,"BSTAR":2.2584054e-5,"MEAN_MOTION_DOT":8.3e-7,"MEAN_MOTION_DDOT":0},{"OBJECT_NAME":"IRIDIUM 143","OBJECT_ID":"2018-030K","EPOCH":"2026-03-05T17:34:19.360992","MEAN_MOTION":14.34217718,"ECCENTRICITY":0.0001899,"INCLINATION":86.4014,"RA_OF_ASC_NODE":333.8202,"ARG_OF_PERICENTER":89.7316,"MEAN_ANOMALY":270.4097,"EPHEMERIS_TYPE":0,"CLASSIFICATION_TYPE":"U","NORAD_CAT_ID":43258,"ELEMENT_SET_NO":999,"REV_AT_EPOCH":41526,"BSTAR":-4.99278e-6,"MEAN_MOTION_DOT":6.0e-8,"MEAN_MOTION_DDOT":0},{"OBJECT_NAME":"IRIDIUM 161","OBJECT_ID":"2018-047C","EPOCH":"2026-03-05T19:07:15.615264","MEAN_MOTION":14.43285004,"ECCENTRICITY":0.00025254,"INCLINATION":86.4507,"RA_OF_ASC_NODE":131.7096,"ARG_OF_PERICENTER":91.7608,"MEAN_ANOMALY":268.3882,"EPHEMERIS_TYPE":0,"CLASSIFICATION_TYPE":"U","NORAD_CAT_ID":43478,"ELEMENT_SET_NO":999,"REV_AT_EPOCH":41022,"BSTAR":0.00012952283,"MEAN_MOTION_DOT":4.56e-6,"MEAN_MOTION_DDOT":0}]
